{"type":"FeatureCollection","features":[{"type":"Feature","geometry":{"type":"Polygon","coordinates":[[[-74.049317,4.662431],[-74.047812,4.663803],[-74.046905,4.664496],[-74.046096,4.664847],[-74.055947,4.670223],[-74.056617,4.668849],[-74.057117,4.66775],[-74.056564,4.667397],[-74.056287,4.667673],[-74.055092,4.66701],[-74.053271,4.665906],[-74.051267,4.664596],[-74.051427,4.664197],[-74.050578,4.66371],[-74.050366,4.663613],[-74.050603,4.663188],[-74.049317,4.662431]]]},"properties":{"zona":"El Retiro","confianza":"media (recalibrado contra ancla oficial; pendiente verificacion visual)","fuente":"Coincide en multiples fuentes (Ciencuadras, Fincaraiz, El Tiempo, enchapinero.com): entre Calle 82 y Calle 85, entre Carrera 7 y Carrera 15. Localidad de Chapinero. Coordenadas RECALIBRADAS usando como ancla el centroide oficial independiente de codigo-postal.co (-74.051636, 4.666703, basado en mapas de la Alcaldia) - mi primera estimacion, hecha de memoria sobre la cuadricula de carreras, tenia un corrimiento real de ~0.005-0.013 grados de longitud (500m-1.3km) al compararla contra coordenadas reales de inmuebles."}},{"type":"Feature","geometry":{"type":"Polygon","coordinates":[[[-74.046785,4.665285],[-74.045946,4.667055],[-74.045464,4.668018],[-74.045075,4.668658],[-74.049547,4.670832],[-74.054004,4.672926],[-74.054543,4.671415],[-74.055375,4.670007],[-74.052208,4.6683],[-74.046785,4.665285]]]},"properties":{"zona":"La Cabrera","confianza":"media (recalibrado contra ancla oficial; pendiente verificacion visual)","fuente":"Ciencuadras y arriendo.com (guias de barrio): de norte a sur entre el Parque el Virrey y la Calle 85, de oriente a occidente entre Carrera 7 y Carrera 15. Localidad de Chapinero. Coordenadas RECALIBRADAS usando como ancla el centroide oficial independiente de codigo-postal.co (-74.050160, 4.669175)."}},{"type":"Feature","geometry":{"type":"Polygon","coordinates":[[[-74.059074,4.675054],[-74.054867,4.673711],[-74.051707,4.672047],[-74.044995,4.66896],[-74.038029,4.679863],[-74.044555,4.683092],[-74.047443,4.684888],[-74.050567,4.685769],[-74.057203,4.686952],[-74.058288,4.680976],[-74.059074,4.675054]]]},"properties":{"zona":"Chicó","confianza":"media-alta (calles ya validadas antes; longitud recalibrada)","fuente":"Ya definido y validado en la prueba tecnica de ingreso: Calle 100 (norte), Parque el Virrey (sur), Carrera 7 (occidente), Autopista Norte (oriente). Coordenadas de longitud RECALIBRADAS con el mismo ajuste que El Retiro/La Cabrera (ver nota de recalibracion arriba); la definicion de calles/parque en si ya estaba validada."}},{"type":"Feature","geometry":{"type":"Polygon","coordinates":[[[-75.586353,6.186041],[-75.579675,6.183703],[-75.575137,6.181241],[-75.547397,6.163514],[-75.548014,6.192134],[-75.548357,6.208844],[-75.556921,6.219395],[-75.564273,6.22134],[-75.576611,6.225616],[-75.581145,6.196843],[-75.581307,6.195555],[-75.582246,6.193784],[-75.583347,6.190275],[-75.585755,6.186623],[-75.586353,6.186041]]]},"properties":{"zona":"El Poblado","confianza":"media (nucleo aproximado, no el limite oficial completo por quebradas)","fuente":"Limite oficial del Municipio (vivirenelpoblado.com): entre la Avenida El Poblado/Cra 43A y la Cra 32D, entre las quebradas La Poblada (norte) y La Presidenta (sur). Por ser un limite de quebradas (dificil de aproximar en linea recta), aqui se usa el NUCLEO comercial/residencial mas denso (Parque Lleras + Provenza + Parque del Poblado), que es ademas el area donde se concentra la oferta real que trae el scraping."}},{"type":"Feature","geometry":{"type":"Polygon","coordinates":[[[-75.589777,6.2392],[-75.588816,6.249236],[-75.593658,6.24984],[-75.596437,6.250125],[-75.599262,6.250123],[-75.600103,6.250195],[-75.600941,6.250491],[-75.601733,6.250502],[-75.602228,6.250348],[-75.603011,6.238768],[-75.589777,6.2392]]]},"properties":{"zona":"Laureles","confianza":"media-alta","fuente":"The Ultimate Guide to Laureles (desktodirtbag.com) + codigo-postal.co: Calle 44/San Juan (norte), Avenida 33 (sur), Avenida 80 (occidente), Carrera 70 (oriente). Comuna 11."}},{"type":"Feature","geometry":{"type":"Polygon","coordinates":[[[-75.554,10.423],[-75.549139,10.422512],[-75.548471,10.422346],[-75.548176,10.422442],[-75.547631,10.421936],[-75.546784,10.421921],[-75.545725,10.422174],[-75.543819,10.42271],[-75.544084,10.424756],[-75.544885,10.427118],[-75.545576,10.428302],[-75.544983,10.429409],[-75.54599,10.430767],[-75.552511,10.42661],[-75.554245,10.425005],[-75.554632,10.423978],[-75.554,10.423]]]},"properties":{"zona":"Centro Histórico","confianza":"media (peninsula pequena, coordenadas aproximadas)","fuente":"Ciudad amurallada de Cartagena (Centro + San Diego), Patrimonio de la Humanidad UNESCO. Delimitada por las murallas coloniales (11 km) hacia el mar Caribe y la Bahia de las Animas, y por la Torre del Reloj / Parque del Centenario hacia Getsemani."}},{"type":"Feature","geometry":{"type":"Polygon","coordinates":[[[-75.549805,10.420649],[-75.54547,10.417472],[-75.544277,10.418994],[-75.543696,10.42257],[-75.545556,10.421975],[-75.546811,10.421752],[-75.547704,10.421737],[-75.548089,10.422294],[-75.548812,10.421603],[-75.549805,10.420649]]]},"properties":{"zona":"Getsemaní","confianza":"media","fuente":"cartagena-tours.co: limita al norte con la Torre del Reloj y la ciudad amurallada, al sur con la Bahia de las Animas, al este con el Camellon de los Martires y el Centro de Convenciones."}},{"type":"Feature","geometry":{"type":"Polygon","coordinates":[[[-79.5375,8.95],[-79.531613,8.949097],[-79.531291,8.951785],[-79.532458,8.954423],[-79.534454,8.954495],[-79.536133,8.955476],[-79.536783,8.954924],[-79.536655,8.954221],[-79.536879,8.953949],[-79.536911,8.953765],[-79.536706,8.953544],[-79.536802,8.953284],[-79.536826,8.952729],[-79.5375,8.95]]]},"properties":{"zona":"Casco Viejo","confianza":"media (peninsula pequena, coordenadas aproximadas)","fuente":"Wikipedia + cascoviejo360.com: peninsula de San Felipe, de Calle 1a Oeste a Calle 12a Oeste, rodeada de agua en 3 lados. Centro aprox. 8.9525N, -79.5350W (Wikipedia)."}},{"type":"Feature","geometry":{"type":"Polygon","coordinates":[[[-79.534059,8.986686],[-79.52968,8.983519],[-79.527735,8.981602],[-79.523507,8.986888],[-79.520042,8.99321],[-79.527922,8.995821],[-79.529755,8.99321],[-79.531909,8.99006],[-79.534059,8.986686]]]},"properties":{"zona":"El Cangrejo","confianza":"media-baja (menos referencias cruzadas; revisar visualmente)","fuente":"Wikipedia (varias fuentes coinciden textualmente): delimitado por la Avenida Central Espana / Via Espana (norte) y la Avenida Simon Bolivar / Transistmica (sur). Limita con La Cresta, Herbruger, Campo Alegre, Edison Park, Obarrio y El Carmen."}},{"type":"Feature","geometry":{"type":"Polygon","coordinates":[[[-79.526299,8.975172],[-79.52458,8.975782],[-79.521809,8.975603],[-79.518195,8.975534],[-79.519295,8.977094],[-79.518828,8.978932],[-79.520973,8.982418],[-79.522318,8.984809],[-79.524132,8.985786],[-79.526488,8.982696],[-79.527773,8.980183],[-79.526299,8.975172]]]},"properties":{"zona":"Bella Vista / Obarrio","confianza":"media-baja (menos referencias cruzadas; revisar visualmente)","fuente":"Wikipedia (corregimiento de Bella Vista) + jcbellavista.gob.pa: barrios Bella Vista (Viejo) y Obarrio, dentro del corregimiento de Bella Vista. Zona entre Via Espana/Calle 50 y la Bahia de Panama (Avenida Balboa)."}}]}